[
    {
        "Altitude(m)": 554113.7403371531,
        "Argument of Periapsis(deg)": 0.026491964442854003,
        "Eccentricity": 0.0,
        "Inclination(deg)": 53.0,
        "Latitude(deg)": 1.0659059611584552,
        "Longitude(deg)": 141.01707946596895,
        "Mean Anomaly(deg)": 178.54827147031034,
        "RAAN(deg)": 64.96057347411208,
        "Satellite Name": "Starlink Shell 1 294",
        "Satellite Number": 294,
        "Semi-Major Axis(m)": 6931778.249405717,
        "Time(s)": 760
    },
    {
        "Altitude(m)": 554174.5891180359,
        "Argument of Periapsis(deg)": 0.02684054292236524,
        "Eccentricity": 0.0,
        "Inclination(deg)": 53.0,
        "Latitude(deg)": 0.5619810443235863,
        "Longitude(deg)": 141.35253510100904,
        "Mean Anomaly(deg)": 179.17510267386703,
        "RAAN(deg)": 64.9600547040346,
        "Satellite Name": "Starlink Shell 1 294",
        "Satellite Number": 294,
        "Semi-Major Axis(m)": 6931778.249405717,
        "Time(s)": 770
    },
    {
        "Altitude(m)": 554238.2421432929,
        "Argument of Periapsis(deg)": 0.027189121401876473,
        "Eccentricity": 0.0,
        "Inclination(deg)": 53.0,
        "Latitude(deg)": 0.058040159477400766,
        "Longitude(deg)": 141.68791910027286,
        "Mean Anomaly(deg)": 179.80193387742378,
        "RAAN(deg)": 64.95953593395713,
        "Satellite Name": "Starlink Shell 1 294",
        "Satellite Number": 294,
        "Semi-Major Axis(m)": 6931778.249405717,
        "Time(s)": 780
    },
    {
        "Altitude(m)": 554304.6922546027,
        "Argument of Periapsis(deg)": 0.02753769988138771,
        "Eccentricity": 0.0,
        "Inclination(deg)": 53.0,
        "Latitude(deg)": -0.4458937965292034,
        "Longitude(deg)": 142.0232894996132,
        "Mean Anomaly(deg)": 180.4287650809805,
        "RAAN(deg)": 64.95901716387965,
        "Satellite Name": "Starlink Shell 1 294",
        "Satellite Number": 294,
        "Semi-Major Axis(m)": 6931778.249405717,
        "Time(s)": 790
    },
    {
        "Altitude(m)": 554373.93093856,
        "Argument of Periapsis(deg)": 0.02788627836089895,
        "Eccentricity": 0.0,
        "Inclination(deg)": 53.0,
        "Latitude(deg)": -0.9497979319761113,
        "Longitude(deg)": 142.35870382201003,
        "Mean Anomaly(deg)": 181.05559628453722,
        "RAAN(deg)": 64.95849839380219,
        "Satellite Name": "Starlink Shell 1 294",
        "Satellite Number": 294,
        "Semi-Major Axis(m)": 6931778.249405717,
        "Time(s)": 800
    },
    {
        "Altitude(m)": 554445.9483281324,
        "Argument of Periapsis(deg)": 0.02823485684041019,
        "Eccentricity": 0.0,
        "Inclination(deg)": 53.0,
        "Latitude(deg)": -1.4536493485974982,
        "Longitude(deg)": 142.69421960708377,
        "Mean Anomaly(deg)": 181.6824274880939,
        "RAAN(deg)": 64.95797962372471,
        "Satellite Name": "Starlink Shell 1 294",
        "Satellite Number": 294,
        "Semi-Major Axis(m)": 6931778.249405717,
        "Time(s)": 810
    },
    {
        "Altitude(m)": 554520.733204836,
        "Argument of Periapsis(deg)": 0.028583435319921423,
        "Eccentricity": 0.0,
        "Inclination(deg)": 53.0,
        "Latitude(deg)": -1.957425129899076,
        "Longitude(deg)": 143.02989494061066,
        "Mean Anomaly(deg)": 182.30925869165063,
        "RAAN(deg)": 64.95746085364723,
        "Satellite Name": "Starlink Shell 1 294",
        "Satellite Number": 294,
        "Semi-Major Axis(m)": 6931778.249405717,
        "Time(s)": 820
    },
    {
        "Altitude(m)": 554598.2730015909,
        "Argument of Periapsis(deg)": 0.028932013799432665,
        "Eccentricity": 0.0,
        "Inclination(deg)": 53.0,
        "Latitude(deg)": -2.46110232945322,
        "Longitude(deg)": 143.365787471173,
        "Mean Anomaly(deg)": 182.93608989520737,
        "RAAN(deg)": 64.95694208356977,
        "Satellite Name": "Starlink Shell 1 294",
        "Satellite Number": 294,
        "Semi-Major Axis(m)": 6931778.249405717,
        "Time(s)": 830
    },
    {
        "Altitude(m)": 554678.5538062173,
        "Argument of Periapsis(deg)": 0.029280592278943897,
        "Eccentricity": 0.0,
        "Inclination(deg)": 53.0,
        "Latitude(deg)": -2.9646579591663045,
        "Longitude(deg)": 143.7019549396998,
        "Mean Anomaly(deg)": 183.56292109876415,
        "RAAN(deg)": 64.95642331349228,
        "Satellite Name": "Starlink Shell 1 294",
        "Satellite Number": 294,
        "Semi-Major Axis(m)": 6931778.249405717,
        "Time(s)": 840
    },
    {
        "Altitude(m)": 554761.5603656536,
        "Argument of Periapsis(deg)": 0.029629170758455132,
        "Eccentricity": 0.0,
        "Inclination(deg)": 53.0,
        "Latitude(deg)": -3.468068977505167,
        "Longitude(deg)": 144.0384557090315,
        "Mean Anomaly(deg)": 184.18975230232076,
        "RAAN(deg)": 64.95590454341482,
        "Satellite Name": "Starlink Shell 1 294",
        "Satellite Number": 294,
        "Semi-Major Axis(m)": 6931778.249405717,
        "Time(s)": 850
    },
    {
        "Altitude(m)": 554847.2760907835,
        "Argument of Periapsis(deg)": 0.02997774923796637,
        "Eccentricity": 0.0,
        "Inclination(deg)": 53.0,
        "Latitude(deg)": -3.9713122776684955,
        "Longitude(deg)": 144.37534761254594,
        "Mean Anomaly(deg)": 184.8165835058775,
        "RAAN(deg)": 64.95538577333734,
        "Satellite Name": "Starlink Shell 1 294",
        "Satellite Number": 294,
        "Semi-Major Axis(m)": 6931778.249405717,
        "Time(s)": 860
    },
    {
        "Altitude(m)": 554935.6830620138,
        "Argument of Periapsis(deg)": 0.030326327717477602,
        "Eccentricity": 0.0,
        "Inclination(deg)": 53.0,
        "Latitude(deg)": -4.474364675697028,
        "Longitude(deg)": 144.71268932427776,
        "Mean Anomaly(deg)": 185.4434147094342,
        "RAAN(deg)": 64.95486700325986,
        "Satellite Name": "Starlink Shell 1 294",
        "Satellite Number": 294,
        "Semi-Major Axis(m)": 6931778.249405717,
        "Time(s)": 870
    },
    {
        "Altitude(m)": 555026.7620354354,
        "Argument of Periapsis(deg)": 0.030674906196988847,
        "Eccentricity": 0.0,
        "Inclination(deg)": 53.0,
        "Latitude(deg)": -4.977202898505737,
        "Longitude(deg)": 145.05053920762708,
        "Mean Anomaly(deg)": 186.07024591299088,
        "RAAN(deg)": 64.9543482331824,
        "Satellite Name": "Starlink Shell 1 294",
        "Satellite Number": 294,
        "Semi-Major Axis(m)": 6931778.249405717,
        "Time(s)": 880
    },
    {
        "Altitude(m)": 555120.4924496962,
        "Argument of Periapsis(deg)": 0.031023484676500086,
        "Eccentricity": 0.0,
        "Inclination(deg)": 53.0,
        "Latitude(deg)": -5.479803571831686,
        "Longitude(deg)": 145.38895584509098,
        "Mean Anomaly(deg)": 186.6970771165477,
        "RAAN(deg)": 64.95382946310492,
        "Satellite Name": "Starlink Shell 1 294",
        "Satellite Number": 294,
        "Semi-Major Axis(m)": 6931778.249405717,
        "Time(s)": 890
    },
    {
        "Altitude(m)": 555216.8524335237,
        "Argument of Periapsis(deg)": 0.03137206315601132,
        "Eccentricity": 0.0,
        "Inclination(deg)": 53.0,
        "Latitude(deg)": -5.9821432080830705,
        "Longitude(deg)": 145.72799856805102,
        "Mean Anomaly(deg)": 187.32390832010438,
        "RAAN(deg)": 64.95331069302745,
        "Satellite Name": "Starlink Shell 1 294",
        "Satellite Number": 294,
        "Semi-Major Axis(m)": 6931778.249405717,
        "Time(s)": 900
    },
    {
        "Altitude(m)": 555315.8188139008,
        "Argument of Periapsis(deg)": 0.03172064163552255,
        "Eccentricity": 0.0,
        "Inclination(deg)": 53.0,
        "Latitude(deg)": -6.48419819407736,
        "Longitude(deg)": 146.06772647375143,
        "Mean Anomaly(deg)": 187.95073952366107,
        "RAAN(deg)": 64.95279192294998,
        "Satellite Name": "Starlink Shell 1 294",
        "Satellite Number": 294,
        "Semi-Major Axis(m)": 6931778.249405717,
        "Time(s)": 910
    },
    {
        "Altitude(m)": 555417.3671248825,
        "Argument of Periapsis(deg)": 0.0320692201150338,
        "Eccentricity": 0.0,
        "Inclination(deg)": 53.0,
        "Latitude(deg)": -6.985944778660167,
        "Longitude(deg)": 146.40819895521815,
        "Mean Anomaly(deg)": 188.57757072721773,
        "RAAN(deg)": 64.95227315287251,
        "Satellite Name": "Starlink Shell 1 294",
        "Satellite Number": 294,
        "Semi-Major Axis(m)": 6931778.249405717,
        "Time(s)": 920
    },
    {
        "Altitude(m)": 555521.471617073,
        "Argument of Periapsis(deg)": 0.032417798594545036,
        "Eccentricity": 0.0,
        "Inclination(deg)": 53.0,
        "Latitude(deg)": -7.487359060191549,
        "Longitude(deg)": 146.74947623125064,
        "Mean Anomaly(deg)": 189.20440193077454,
        "RAAN(deg)": 64.95175438279503,
        "Satellite Name": "Starlink Shell 1 294",
        "Satellite Number": 294,
        "Semi-Major Axis(m)": 6931778.249405717,
        "Time(s)": 930
    },
    {
        "Altitude(m)": 555628.1052677348,
        "Argument of Periapsis(deg)": 0.03276637707405627,
        "Eccentricity": 0.0,
        "Inclination(deg)": 53.0,
        "Latitude(deg)": -7.988416973885613,
        "Longitude(deg)": 147.09161836361616,
        "Mean Anomaly(deg)": 189.83123313433123,
        "RAAN(deg)": 64.95123561271757,
        "Satellite Name": "Starlink Shell 1 294",
        "Satellite Number": 294,
        "Semi-Major Axis(m)": 6931778.249405717,
        "Time(s)": 940
    }
]